start=new Date('2021-08-27T00:00:00.000Z').valueOf();
sats=[{"ARG_OF_PERICENTER":"57.0955","ECCENTRICITY":"0.00007130","FILE":"3103480","GP_ID":"183495844","MEAN_ANOMALY":"303.0103","SITE":"AFETR","ELEMENT_SET_NO":"999","MEAN_MOTION_DDOT":"0.0000000000000","NORAD_CAT_ID":"45236","MEAN_MOTION_DOT":"-0.00001152","EPOCH":"2021-08-26T17:45:00.712512","OBJECT_TYPE":"PAYLOAD","DECAY_DATE":null,"MEAN_ELEMENT_THEORY":"SGP4","TLE_LINE1":"1 45236U 20012BL  21238.73959158 -.00001152  00000-0 -58478-4 0  9995","SEMIMAJOR_AXIS":"6925.358","LAUNCH_DATE":"2020-02-17","CLASSIFICATION_TYPE":"U","TLE_LINE2":"2 45236  53.0528 240.4801 0000713  57.0955 303.0103 15.06396850 85800","RCS_SIZE":"LARGE","REF_FRAME":"TEME","EPHEMERIS_TYPE":"0","APOAPSIS":"547.717","PERIOD":"95.592","INCLINATION":"53.0528","OBJECT_NAME":"STARLINK-1247","COUNTRY_CODE":"US","TIME_SYSTEM":"UTC","OBJECT_ID":"2020-012BL","BSTAR":"-0.00005847800000","REV_AT_EPOCH":"8580","RA_OF_ASC_NODE":"240.4801","MEAN_MOTION":"15.06396850","CENTER_NAME":"EARTH","PERIAPSIS":"546.729"},{"EPOCH":"2021-08-26T10:19:09.095232","MEAN_MOTION_DOT":"0.00000617","DECAY_DATE":null,"OBJECT_TYPE":"PAYLOAD","FILE":"3103463","MEAN_ANOMALY":"322.0019","GP_ID":"183472368","SITE":"AFETR","ARG_OF_PERICENTER":"38.1033","ECCENTRICITY":"0.00008970","NORAD_CAT_ID":"45237","ELEMENT_SET_NO":"999","MEAN_MOTION_DDOT":"0.0000000000000","RCS_SIZE":"LARGE","REF_FRAME":"TEME","CLASSIFICATION_TYPE":"U","TLE_LINE2":"2 45237  53.0540 241.8669 0000897  38.1033 322.0019 15.06402374 85763","PERIOD":"95.592","EPHEMERIS_TYPE":"0","APOAPSIS":"547.827","TLE_LINE1":"1 45237U 20012BM  21238.42996638  .00000617  00000-0  60292-4 0  9996","MEAN_ELEMENT_THEORY":"SGP4","SEMIMAJOR_AXIS":"6925.341","LAUNCH_DATE":"2020-02-17","OBJECT_ID":"2020-012BM","TIME_SYSTEM":"UTC","BSTAR":"0.00006029200000","REV_AT_EPOCH":"8576","OBJECT_NAME":"STARLINK-1270","INCLINATION":"53.0540","COUNTRY_CODE":"US","MEAN_MOTION":"15.06402374","CENTER_NAME":"EARTH","PERIAPSIS":"546.585","RA_OF_ASC_NODE":"241.8669"},{"TLE_LINE2":"2 45360  53.0559  11.1515 0001558 112.2419 247.8736 15.06394655 80526","CLASSIFICATION_TYPE":"U","REF_FRAME":"TEME","RCS_SIZE":"LARGE","APOAPSIS":"548.309","EPHEMERIS_TYPE":"0","PERIOD":"95.592","TLE_LINE1":"1 45360U 20019A   21238.58754782  .00001039  00000-0  88656-4 0  9992","MEAN_ELEMENT_THEORY":"SGP4","LAUNCH_DATE":"2020-03-18","SEMIMAJOR_AXIS":"6925.365","MEAN_MOTION_DOT":"0.00001039","EPOCH":"2021-08-26T14:06:04.131648","OBJECT_TYPE":"PAYLOAD","DECAY_DATE":null,"ECCENTRICITY":"0.00015580","ARG_OF_PERICENTER":"112.2419","SITE":"AFETR","GP_ID":"183495858","MEAN_ANOMALY":"247.8736","FILE":"3103480","MEAN_MOTION_DDOT":"0.0000000000000","ELEMENT_SET_NO":"999","NORAD_CAT_ID":"45360","MEAN_MOTION":"15.06394655","PERIAPSIS":"546.151","CENTER_NAME":"EARTH","RA_OF_ASC_NODE":"11.1515","TIME_SYSTEM":"UTC","OBJECT_ID":"2020-019A","REV_AT_EPOCH":"8052","BSTAR":"0.00008865600000","INCLINATION":"53.0559","OBJECT_NAME":"STARLINK-1279","COUNTRY_CODE":"US"},{"RA_OF_ASC_NODE":"20.6102","MEAN_MOTION":"15.06403844","PERIAPSIS":"546.101","CENTER_NAME":"EARTH","INCLINATION":"53.0557","OBJECT_NAME":"STARLINK-1301","COUNTRY_CODE":"US","TIME_SYSTEM":"UTC","OBJECT_ID":"2020-019B","REV_AT_EPOCH":"8041","BSTAR":"0.00009591900000","MEAN_ELEMENT_THEORY":"SGP4","TLE_LINE1":"1 45361U 20019B   21238.70825457  .00001148  00000-0  95919-4 0  9996","LAUNCH_DATE":"2020-03-18","SEMIMAJOR_AXIS":"6925.337","TLE_LINE2":"2 45361  53.0557  20.6102 0001589 108.6626 251.4535 15.06403844 80412","CLASSIFICATION_TYPE":"U","REF_FRAME":"TEME","RCS_SIZE":"LARGE","APOAPSIS":"548.302","EPHEMERIS_TYPE":"0","PERIOD":"95.592","ECCENTRICITY":"0.00015890","ARG_OF_PERICENTER":"108.6626","MEAN_ANOMALY":"251.4535","GP_ID":"183495106","SITE":"AFETR","FILE":"3103480","ELEMENT_SET_NO":"999","MEAN_MOTION_DDOT":"0.0000000000000","NORAD_CAT_ID":"45361","MEAN_MOTION_DOT":"0.00001148","EPOCH":"2021-08-26T16:59:53.194848","OBJECT_TYPE":"PAYLOAD","DECAY_DATE":null},{"RA_OF_ASC_NODE":"40.4048","MEAN_MOTION":"15.06404591","CENTER_NAME":"EARTH","PERIAPSIS":"545.891","INCLINATION":"53.0551","OBJECT_NAME":"STARLINK-1306","COUNTRY_CODE":"US","TIME_SYSTEM":"UTC","OBJECT_ID":"2020-019C","BSTAR":"0.00006160000000","REV_AT_EPOCH":"8013","MEAN_ELEMENT_THEORY":"SGP4","TLE_LINE1":"1 45362U 20019C   21238.75432473  .00000636  00000-0  61600-4 0  9995","SEMIMAJOR_AXIS":"6925.334","LAUNCH_DATE":"2020-03-18","TLE_LINE2":"2 45362  53.0551  40.4048 0001889 103.4734 256.6466 15.06404591 80131","CLASSIFICATION_TYPE":"U","RCS_SIZE":"LARGE","REF_FRAME":"TEME","EPHEMERIS_TYPE":"0","APOAPSIS":"548.508","PERIOD":"95.592","ARG_OF_PERICENTER":"103.4734","ECCENTRICITY":"0.00018890","FILE":"3103480","MEAN_ANOMALY":"256.6466","GP_ID":"183495356","SITE":"AFETR","ELEMENT_SET_NO":"999","MEAN_MOTION_DDOT":"0.0000000000000","NORAD_CAT_ID":"45362","MEAN_MOTION_DOT":"0.00000636","EPOCH":"2021-08-26T18:06:13.656672","OBJECT_TYPE":"PAYLOAD","DECAY_DATE":null},{"EPOCH":"2021-08-26T15:36:17.837280","MEAN_MOTION_DOT":"0.00000395","DECAY_DATE":null,"OBJECT_TYPE":"PAYLOAD","GP_ID":"183495608","MEAN_ANOMALY":"244.0944","SITE":"AFETR","FILE":"3103480","ECCENTRICITY":"0.00015720","ARG_OF_PERICENTER":"116.0207","NORAD_CAT_ID":"45364","MEAN_MOTION_DDOT":"0.0000000000000","ELEMENT_SET_NO":"999","REF_FRAME":"TEME","RCS_SIZE":"LARGE","TLE_LINE2":"2 45364  53.0560  10.8738 0001572 116.0207 244.0944 15.06394846 80531","CLASSIFICATION_TYPE":"U","PERIOD":"95.592","APOAPSIS":"548.318","EPHEMERIS_TYPE":"0","TLE_LINE1":"1 45364U 20019E   21238.65020645  .00000395  00000-0  45422-4 0  9996","MEAN_ELEMENT_THEORY":"SGP4","LAUNCH_DATE":"2020-03-18","SEMIMAJOR_AXIS":"6925.364","OBJECT_ID":"2020-019E","TIME_SYSTEM":"UTC","REV_AT_EPOCH":"8053","BSTAR":"0.00004542200000","OBJECT_NAME":"STARLINK-1313","INCLINATION":"53.0560","COUNTRY_CODE":"US","MEAN_MOTION":"15.06394846","PERIAPSIS":"546.141","CENTER_NAME":"EARTH","RA_OF_ASC_NODE":"10.8738"},{"SITE":"AFETR","GP_ID":"183496358","MEAN_ANOMALY":"250.0441","FILE":"3103480","ECCENTRICITY":"0.00014030","ARG_OF_PERICENTER":"110.0698","NORAD_CAT_ID":"45365","MEAN_MOTION_DDOT":"0.0000000000000","ELEMENT_SET_NO":"999","EPOCH":"2021-08-26T16:45:41.904288","MEAN_MOTION_DOT":"0.00001434","DECAY_DATE":null,"OBJECT_TYPE":"PAYLOAD","TLE_LINE1":"1 45365U 20019F   21238.69840167  .00001434  00000-0  11754-3 0  9995","MEAN_ELEMENT_THEORY":"SGP4","LAUNCH_DATE":"2020-03-18","SEMIMAJOR_AXIS":"6927.836","REF_FRAME":"TEME","RCS_SIZE":"LARGE","TLE_LINE2":"2 45365  53.0035  20.6438 0001403 110.0698 250.0441 15.05588741 80386","CLASSIFICATION_TYPE":"U","PERIOD":"95.644","APOAPSIS":"550.673","EPHEMERIS_TYPE":"0","OBJECT_NAME":"STARLINK-1317","INCLINATION":"53.0035","COUNTRY_CODE":"US","OBJECT_ID":"2020-019F","TIME_SYSTEM":"UTC","REV_AT_EPOCH":"8038","BSTAR":"0.00011754000000","RA_OF_ASC_NODE":"20.6438","MEAN_MOTION":"15.05588741","PERIAPSIS":"548.729","CENTER_NAME":"EARTH"},{"NORAD_CAT_ID":"45366","MEAN_MOTION_DDOT":"0.0000000000000","ELEMENT_SET_NO":"999","FILE":"3103480","SITE":"AFETR","GP_ID":"183494607","MEAN_ANOMALY":"251.9834","ARG_OF_PERICENTER":"108.1355","ECCENTRICITY":"0.00018360","DECAY_DATE":null,"OBJECT_TYPE":"PAYLOAD","EPOCH":"2021-08-26T17:45:00.840384","MEAN_MOTION_DOT":"0.00001432","SEMIMAJOR_AXIS":"6925.362","LAUNCH_DATE":"2020-03-18","MEAN_ELEMENT_THEORY":"SGP4","TLE_LINE1":"1 45366U 20019G   21238.73959306  .00001432  00000-0  11502-3 0  9996","PERIOD":"95.592","EPHEMERIS_TYPE":"0","APOAPSIS":"548.498","RCS_SIZE":"LARGE","REF_FRAME":"TEME","TLE_LINE2":"2 45366  53.0553  40.4684 0001836 108.1355 251.9834 15.06395696 80149","CLASSIFICATION_TYPE":"U","COUNTRY_CODE":"US","OBJECT_NAME":"STARLINK-1262","INCLINATION":"53.0553","BSTAR":"0.00011502000000","REV_AT_EPOCH":"8014","OBJECT_ID":"2020-019G","TIME_SYSTEM":"UTC","RA_OF_ASC_NODE":"40.4684","CENTER_NAME":"EARTH","PERIAPSIS":"545.955","MEAN_MOTION":"15.06395696"},{"ECCENTRICITY":"0.00016900","ARG_OF_PERICENTER":"105.7635","MEAN_ANOMALY":"254.3540","GP_ID":"183494857","SITE":"AFETR","FILE":"3103480","ELEMENT_SET_NO":"999","MEAN_MOTION_DDOT":"0.0000000000000","NORAD_CAT_ID":"45367","MEAN_MOTION_DOT":"0.00001418","EPOCH":"2021-08-26T18:16:50.975904","OBJECT_TYPE":"PAYLOAD","DECAY_DATE":null,"MEAN_ELEMENT_THEORY":"SGP4","TLE_LINE1":"1 45367U 20019H   21238.76170111  .00001418  00000-0  11406-3 0  9996","LAUNCH_DATE":"2020-03-18","SEMIMAJOR_AXIS":"6925.334","TLE_LINE2":"2 45367  53.0558  40.3764 0001690 105.7635 254.3540 15.06404674 80143","CLASSIFICATION_TYPE":"U","REF_FRAME":"TEME","RCS_SIZE":"LARGE","APOAPSIS":"548.370","EPHEMERIS_TYPE":"0","PERIOD":"95.592","INCLINATION":"53.0558","OBJECT_NAME":"STARLINK-1273","COUNTRY_CODE":"US","TIME_SYSTEM":"UTC","OBJECT_ID":"2020-019H","REV_AT_EPOCH":"8014","BSTAR":"0.00011406000000","RA_OF_ASC_NODE":"40.3764","MEAN_MOTION":"15.06404674","PERIAPSIS":"546.029","CENTER_NAME":"EARTH"},{"TIME_SYSTEM":"UTC","OBJECT_ID":"2020-019J","BSTAR":"0.00007099000000","REV_AT_EPOCH":"8014","INCLINATION":"53.0567","OBJECT_NAME":"STARLINK-1276","COUNTRY_CODE":"US","MEAN_MOTION":"15.06396097","CENTER_NAME":"EARTH","PERIAPSIS":"546.118","RA_OF_ASC_NODE":"40.5118","MEAN_MOTION_DOT":"0.00000776","EPOCH":"2021-08-26T17:34:24.543264","OBJECT_TYPE":"PAYLOAD","DECAY_DATE":null,"ARG_OF_PERICENTER":"109.8910","ECCENTRICITY":"0.00015990","FILE":"3103480","GP_ID":"183496108","MEAN_ANOMALY":"250.2252","SITE":"AFETR","ELEMENT_SET_NO":"999","MEAN_MOTION_DDOT":"0.0000000000000","NORAD_CAT_ID":"45368","TLE_LINE2":"2 45368  53.0567  40.5118 0001599 109.8910 250.2252 15.06396097 80142","CLASSIFICATION_TYPE":"U","RCS_SIZE":"LARGE","REF_FRAME":"TEME","EPHEMERIS_TYPE":"0","APOAPSIS":"548.333","PERIOD":"95.592","MEAN_ELEMENT_THEORY":"SGP4","TLE_LINE1":"1 45368U 20019J   21238.73222851  .00000776  00000-0  70990-4 0  9993","SEMIMAJOR_AXIS":"6925.361","LAUNCH_DATE":"2020-03-18"}];
